NORAD_CAT_ID,OBJECT_NAME,OBJECT_TYPE,EPOCH,MEAN_MOTION,ECCENTRICITY,INCLINATION,RA_OF_ASC_NODE,ARG_OF_PERICENTER,MEAN_ANOMALY,BSTAR,MEAN_MOTION_DOT,MEAN_MOTION_DDOT,TLE_LINE0,TLE_LINE1,TLE_LINE2,SEMIMAJOR_AXIS,PERIOD,APOGEE,PERIGEE,DECAYED
52588.0,STARLINK-3917,PAYLOAD,2024-01-20 06:36:10,15.08839239,0.0001686,53.217,18.0471,117.5434,242.573,-0.00022918,-3.934e-05,0.0,0 STARLINK-3917,1 52588U 22051BE  24020.27512509 -.00003934  00000-0 -22918-3 0  9993,2 52588  53.2170  18.0471 0001686 117.5434 242.5730 15.08839239 93929,6917.883,95.438,540.914,538.581,0.0
52588.0,STARLINK-3917,PAYLOAD,2024-01-20 22:30:02,15.08831009,0.000155,53.2175,15.0728,76.8777,283.2388,-3.2465e-06,-3.4e-06,0.0,0 STARLINK-3917,1 52588U 22051BE  24020.93752796 -.00000340  00000-0 -32465-5 0  9998,2 52588  53.2175  15.0728 0001550  76.8777 283.2388 15.08831009 94023,6917.908,95.438,540.845,538.701,0.0
52588.0,STARLINK-3917,PAYLOAD,2024-01-21 06:26:57,15.08840364,0.0001559,53.2167,13.5866,82.5256,277.5913,0.00020984,3.053e-05,0.0,0 STARLINK-3917,1 52588U 22051BE  24021.26872396  .00003053  00000-0  20984-3 0  9997,2 52588  53.2167  13.5866 0001559  82.5256 277.5913 15.08840364 94142,6917.879,95.438,540.823,538.666,0.0
52588.0,STARLINK-3917,PAYLOAD,2024-01-21 22:20:49,15.08832321,0.0001538,53.217,10.6134,95.8121,264.3047,0.00027603,4.107e-05,0.0,0 STARLINK-3917,1 52588U 22051BE  24021.93113163  .00004107  00000-0  27603-3 0  9997,2 52588  53.2170  10.6134 0001538  95.8121 264.3047 15.08832321 94176,6917.904,95.438,540.833,538.705,0.0
52588.0,STARLINK-3917,PAYLOAD,2024-01-22 03:06:58,15.08839591,0.000154,53.2168,9.7214,99.6275,260.4891,0.00026255,3.893e-05,0.0,0 STARLINK-3917,1 52588U 22051BE  24022.12984874  .00003893  00000-0  26255-3 0  9997,2 52588  53.2168   9.7214 0001540  99.6275 260.4891 15.08839591 94277,6917.882,95.438,540.812,538.681,0.0
52588.0,STARLINK-3917,PAYLOAD,2024-01-22 04:42:22,15.08839849,0.0001498,53.217,9.4241,94.9985,265.1178,0.0003276,4.93e-05,0.0,0 STARLINK-3917,1 52588U 22051BE  24022.19608936  .00004930  00000-0  32760-3 0  9997,2 52588  53.2170   9.4241 0001498  94.9985 265.1178 15.08839849 94215,6917.881,95.438,540.782,538.71,0.0
52588.0,STARLINK-3917,PAYLOAD,2024-01-22 07:53:08,15.08846888,0.0001516,53.2173,8.8295,94.7325,265.384,0.00039488,6.003e-05,0.0,0 STARLINK-3917,1 52588U 22051BE  24022.32856583  .00006003  00000-0  39488-3 0  9992,2 52588  53.2173   8.8295 0001516  94.7325 265.3840 15.08846888 94238,6917.859,95.437,540.773,538.676,0.0
52588.0,STARLINK-3917,PAYLOAD,2024-01-23 06:08:32,15.08847121,0.0001578,53.2173,4.6658,85.0713,275.046,0.00016692,2.37e-05,0.0,0 STARLINK-3917,1 52588U 22051BE  24023.25592662  .00002370  00000-0  16692-3 0  9995,2 52588  53.2173   4.6658 0001578  85.0713 275.0460 15.08847121 94447,6917.859,95.437,540.815,538.632,0.0
52588.0,STARLINK-3917,PAYLOAD,2024-01-24 02:48:33,15.08842627,0.0001831,53.2175,0.8008,68.0003,292.1184,9.7171e-05,1.259e-05,0.0,0 STARLINK-3917,1 52588U 22051BE  24024.11704977  .00001259  00000-0  97171-4 0  9992,2 52588  53.2175   0.8008 0001831  68.0003 292.1184 15.08842627 94574,6917.872,95.437,541.004,538.471,0.0
52588.0,STARLINK-3917,PAYLOAD,2024-01-24 05:59:19,15.08843793,0.0001802,53.2177,0.2064,69.7066,290.4119,0.00012548,1.71e-05,0.0,0 STARLINK-3917,1 52588U 22051BE  24024.24952946  .00001710  00000-0  12548-3 0  9993,2 52588  53.2177   0.2064 0001802  69.7066 290.4119 15.08843793 94526,6917.869,95.437,540.98,538.487,0.0
52588.0,STARLINK-3917,PAYLOAD,2024-01-25 04:14:43,15.0884212,0.0002153,53.2192,356.0445,62.3343,297.7868,7.3904e-05,8.88e-06,0.0,0 STARLINK-3917,1 52588U 22051BE  24025.17689266  .00000888  00000-0  73904-4 0  9997,2 52588  53.2192 356.0445 0002153  62.3343 297.7868 15.08842120 94732,6917.874,95.437,541.228,538.249,0.0
52588.0,STARLINK-3917,PAYLOAD,2024-01-26 04:05:30,15.0883751,0.0001653,53.2186,351.596,78.119,281.9988,4.0047e-05,3.49e-06,0.0,0 STARLINK-3917,1 52588U 22051BE  24026.17049738  .00000349  00000-0  40047-4 0  9996,2 52588  53.2186 351.5960 0001653  78.1190 281.9988 15.08837510 94887,6917.888,95.438,540.897,538.609,0.0
52588.0,STARLINK-3917,PAYLOAD,2024-01-27 07:07:03,15.08852719,0.0001547,53.2194,346.524,92.0318,268.0851,5.6229e-05,6.07e-06,0.0,0 STARLINK-3917,1 52588U 22051BE  24027.29656670  .00000607  00000-0  56229-4 0  9995,2 52588  53.2194 346.5240 0001547  92.0318 268.0851 15.08852719 95053,6917.842,95.437,540.777,538.636,0.0
52588.0,STARLINK-3917,PAYLOAD,2024-01-27 21:25:32,15.08838314,0.0001573,53.2194,343.8456,97.6798,262.4372,5.9867e-05,6.65e-06,0.0,0 STARLINK-3917,1 52588U 22051BE  24027.89273676  .00000665  00000-0  59867-4 0  9997,2 52588  53.2194 343.8456 0001573  97.6798 262.4372 15.08838314 95077,6917.886,95.438,540.839,538.662,0.0
52588.0,STARLINK-3917,PAYLOAD,2024-01-28 02:11:41,15.08839601,0.0001449,53.2194,342.953,98.2629,261.8527,6.3887e-05,7.29e-06,0.0,0 STARLINK-3917,1 52588U 22051BE  24028.09145563  .00000729  00000-0  63887-4 0  9991,2 52588  53.2194 342.9530 0001449  98.2629 261.8527 15.08839601 95178,6917.882,95.438,540.749,538.744,0.0
52588.0,STARLINK-3917,PAYLOAD,2024-01-28 06:57:51,15.0883915,0.0001429,53.2191,342.0624,105.916,254.1989,2.3271e-05,8.2e-07,0.0,0 STARLINK-3917,1 52588U 22051BE  24028.29017669  .00000082  00000-0  23271-4 0  9993,2 52588  53.2191 342.0624 0001429 105.9160 254.1989 15.08839150 95136,6917.883,95.438,540.737,538.759,0.0
52588.0,STARLINK-3917,PAYLOAD,2024-01-29 02:02:29,15.08840586,0.0001541,53.2186,338.4935,109.0781,251.0378,-1.286e-05,-4.93e-06,0.0,0 STARLINK-3917,1 52588U 22051BE  24029.08505905 -.00000493  00000-0 -12860-4 0  9996,2 52588  53.2186 338.4935 0001541 109.0781 251.0378 15.08840586 95259,6917.879,95.438,540.81,538.678,0.0
52588.0,STARLINK-3917,PAYLOAD,2024-01-30 03:28:39,15.08842858,0.0001377,53.2187,333.7369,85.6085,274.5065,0.00010771,1.427e-05,0.0,0 STARLINK-3917,1 52588U 22051BE  24030.14489656  .00001427  00000-0  10771-3 0  9993,2 52588  53.2187 333.7369 0001377  85.6085 274.5065 15.08842858 95484,6917.872,95.437,540.689,538.784,0.0
52588.0,STARLINK-3917,PAYLOAD,2024-01-30 06:39:25,15.08843119,0.000139,53.2188,333.1427,86.3673,273.7479,0.0001066,1.409e-05,0.0,0 STARLINK-3917,1 52588U 22051BE  24030.27737646  .00001409  00000-0  10660-3 0  9999,2 52588  53.2188 333.1427 0001390  86.3673 273.7479 15.08843119 95436,6917.871,95.437,540.697,538.774,0.0
52588.0,STARLINK-3917,PAYLOAD,2024-01-31 01:44:03,15.08843485,0.000135,53.2185,329.5725,78.5365,281.5779,7.3341e-05,8.8e-06,0.0,0 STARLINK-3917,1 52588U 22051BE  24031.07225749  .00000880  00000-0  73341-4 0  9992,2 52588  53.2185 329.5725 0001350  78.5365 281.5779 15.08843485 95559,6917.87,95.437,540.669,538.801,0.0
52588.0,STARLINK-3917,PAYLOAD,2024-01-31 19:13:17,15.08843544,0.0001507,53.2184,326.3099,74.7676,285.3482,1.1368e-05,-1.07e-06,0.0,0 STARLINK-3917,1 52588U 22051BE  24031.80090109 -.00000107  00000-0  11368-4 0  9997,2 52588  53.2184 326.3099 0001507  74.7676 285.3482 15.08843544 95733,6917.87,95.437,540.777,538.692,0.0
52588.0,STARLINK-3917,PAYLOAD,2024-02-01 01:34:50,15.0883382,0.0001432,53.218,325.1162,97.0492,263.0663,0.00010696,1.414e-05,0.0,0 STARLINK-3917,1 52588U 22051BE  24032.06586169  .00001414  00000-0  10696-3 0  9995,2 52588  53.2180 325.1162 0001432  97.0492 263.0663 15.08833820 95705,6917.899,95.438,540.755,538.774,0.0
52588.0,STARLINK-3917,PAYLOAD,2024-02-02 01:25:37,15.08843661,0.0001729,53.2186,320.6579,73.7481,286.3701,0.00010143,1.327e-05,0.0,0 STARLINK-3917,1 52588U 22051BE  24033.05945763  .00001327  00000-0  10143-3 0  9994,2 52588  53.2186 320.6579 0001729  73.7481 286.3701 15.08843661 95920,6917.869,95.437,540.93,538.538,0.0
52588.0,STARLINK-3917,PAYLOAD,2024-02-02 18:54:52,15.08838347,0.0001712,53.2187,317.3865,83.3159,276.8028,4.3424e-05,4.03e-06,0.0,0 STARLINK-3917,1 52588U 22051BE  24033.78810247  .00000403  00000-0  43424-4 0  9995,2 52588  53.2187 317.3865 0001712  83.3159 276.8028 15.08838347 96037,6917.885,95.438,540.935,538.566,0.0
52588.0,STARLINK-3917,PAYLOAD,2024-02-03 01:16:24,15.08837637,0.0001672,53.2185,316.1969,81.7221,278.3961,2.8028e-05,1.58e-06,0.0,0 STARLINK-3917,1 52588U 22051BE  24034.05306333  .00000158  00000-0  28028-4 0  9992,2 52588  53.2185 316.1969 0001672  81.7221 278.3961 15.08837637 96005,6917.888,95.438,540.909,538.596,0.0
52588.0,STARLINK-3917,PAYLOAD,2024-02-03 21:56:25,15.08846668,0.00015,53.2187,312.3301,102.1076,258.0084,-2.9441e-05,-7.57e-06,0.0,0 STARLINK-3917,1 52588U 22051BE  24034.91417845 -.00000757  00000-0 -29441-4 0  9995,2 52588  53.2187 312.3301 0001500 102.1076 258.0084 15.08846668 96130,6917.86,95.437,540.763,538.687,0.0
52588.0,STARLINK-3917,PAYLOAD,2024-02-04 01:07:11,15.08842945,0.0001653,53.2184,311.7361,97.6637,262.4543,6.4963e-05,7.46e-06,0.0,0 STARLINK-3917,1 52588U 22051BE  24035.04665734  .00000746  00000-0  64963-4 0  9996,2 52588  53.2184 311.7361 0001653  97.6637 262.4543 15.08842945 96229,6917.871,95.437,540.88,538.593,0.0
52588.0,STARLINK-3917,PAYLOAD,2024-02-04 04:17:57,15.08825274,0.0001736,53.2183,311.1394,98.6029,261.516,0.00037253,5.643e-05,0.0,0 STARLINK-3917,1 52588U 22051BE  24035.17913996  .00005643  00000-0  37253-3 0  9998,2 52588  53.2183 311.1394 0001736  98.6029 261.5160 15.08825274 96249,6917.925,95.438,540.991,538.589,0.0
52588.0,STARLINK-3917,PAYLOAD,2024-02-04 21:47:12,15.08839225,0.0001602,53.2186,307.8666,101.6437,258.4735,2.9632e-05,1.84e-06,0.0,0 STARLINK-3917,1 52588U 22051BE  24035.90778051  .00000184  00000-0  29632-4 0  9998,2 52588  53.2186 307.8666 0001602 101.6437 258.4735 15.08839225 96284,6917.883,95.438,540.856,538.64,0.0
52588.0,STARLINK-3917,PAYLOAD,2024-02-05 04:08:44,15.0884312,0.0001702,53.219,306.6762,111.1044,249.013,3.6498e-05,2.93e-06,0.0,0 STARLINK-3917,1 52588U 22051BE  24036.17273700  .00000293  00000-0  36498-4 0  9998,2 52588  53.2190 306.6762 0001702 111.1044 249.0130 15.08843120 96390,6917.871,95.437,540.913,538.558,0.0
